{
  "version": 0.6,
  "generator": "Overpass API 0.7.58.5 b0c4acbb",
  "osm3s": {
    "timestamp_osm_base": "2022-08-03T13:40:39Z",
    "timestamp_areas_base": "2022-07-20T11:06:24Z",
    "copyright": "The data included in this document is from www.openstreetmap.org. The data is made available under ODbL."
  },
  "elements": [
    {
      "type": "node",
      "id": 962912042,
      "lat": 34.6677248,
      "lon": 135.4588339,
      "tags": {
        "amenity": "library",
        "name": "大阪市立港図書館",
        "source": "Bing,2008-03; survey",
        "wikidata": "Q11440621",
        "wikipedia": "ja:大阪市立港図書館"
      }
    },
    {
      "type": "node",
      "id": 1080511584,
      "lat": 34.7338715,
      "lon": 135.5197021,
      "tags": {
        "amenity": "library",
        "name": "大阪市立東淀川図書館",
        "name:en": "Higashiyodogawa Library",
        "name:ja": "大阪市立東淀川図書館",
        "note": "National-Land Numerical Information (Public Facility) 2006, MLIT Japan",
        "note:ja": "国土数値情報（公共施設データ）平成19年　国土交通省",
        "source": "Bing",
        "source_ref": "http://nlftp.mlit.go.jp/ksj/jpgis/datalist/KsjTmplt-P02-v2_0.html",
        "wikidata": "Q11440556",
        "wikipedia": "ja:大阪市立東淀川図書館"
      }
    },
    {
      "type": "node",
      "id": 1422989538,
      "lat": 34.6063695,
      "lon": 135.4750788,
      "tags": {
        "amenity": "library",
        "level": "3",
        "name": "大阪市立住之江図書館",
        "note": "National-Land Numerical Information (Public Facility) 2006, MLIT Japan",
        "note:ja": "国土数値情報（公共施設データ）平成19年　国土交通省",
        "source": "KSJ2",
        "source_ref": "http://nlftp.mlit.go.jp/ksj/jpgis/datalist/KsjTmplt-P02-v2_0.html",
        "wikidata": "Q11440325",
        "wikipedia": "ja:大阪市立住之江図書館"
      }
    },
    {
      "type": "node",
      "id": 1422989558,
      "lat": 34.7157018,
      "lon": 135.5085878,
      "tags": {
        "KSJ2:ADS": "本庄東3-8-2",
        "KSJ2:AdminArea": "大阪府大阪市北区",
        "KSJ2:PubFacAdmin": "市区町村",
        "amenity": "library",
        "name": "大阪市立北図書館",
        "note": "National-Land Numerical Information (Public Facility) 2006, MLIT Japan",
        "note:ja": "国土数値情報（公共施設データ）平成19年　国土交通省",
        "opening_hours": "Tu-Su 10:00-19:00",
        "source": "KSJ2",
        "source_ref": "http://nlftp.mlit.go.jp/ksj/jpgis/datalist/KsjTmplt-P02-v2_0.html",
        "wheelchair": "yes",
        "wikidata": "Q11440356",
        "wikipedia": "ja:大阪市立北図書館"
      }
    },
    {
      "type": "node",
      "id": 1422989579,
      "lat": 34.703198,
      "lon": 135.544659,
      "tags": {
        "amenity": "library",
        "name": "大阪市立城東図書館",
        "name:ja": "大阪市立城東図書館",
        "name:zh": "大阪市立城东图书馆",
        "note": "National-Land Numerical Information (Public Facility) 2006, MLIT Japan",
        "note:ja": "国土数値情報（公共施設データ）平成19年　国土交通省",
        "source": "KSJ2",
        "source_ref": "http://nlftp.mlit.go.jp/ksj/jpgis/datalist/KsjTmplt-P02-v2_0.html",
        "wikidata": "Q11440403",
        "wikipedia": "ja:大阪市立城東図書館"
      }
    },
    {
      "type": "node",
      "id": 1422989598,
      "lat": 34.65087,
      "lon": 135.472111,
      "tags": {
        "KSJ2:ADS": "千島2-6-15",
        "KSJ2:AdminArea": "大阪府大阪市大正区",
        "KSJ2:PubFacAdmin": "市区町村",
        "amenity": "library",
        "name": "大阪市立大正図書館",
        "note": "National-Land Numerical Information (Public Facility) 2006, MLIT Japan",
        "note:ja": "国土数値情報（公共施設データ）平成19年　国土交通省",
        "source": "KSJ2",
        "source_ref": "http://nlftp.mlit.go.jp/ksj/jpgis/datalist/KsjTmplt-P02-v2_0.html",
        "wikidata": "Q11440428",
        "wikipedia": "ja:大阪市立大正図書館"
      }
    },
    {
      "type": "node",
      "id": 1422989610,
      "lat": 34.6717368,
      "lon": 135.5079145,
      "tags": {
        "amenity": "library",
        "level": "3",
        "name": "大阪市立島之内図書館",
        "note": "National-Land Numerical Information (Public Facility) 2006, MLIT Japan",
        "note:ja": "国土数値情報（公共施設データ）平成19年　国土交通省",
        "source": "KSJ2",
        "source_ref": "http://nlftp.mlit.go.jp/ksj/jpgis/datalist/KsjTmplt-P02-v2_0.html",
        "wheelchair": "yes",
        "wikidata": "Q11440463",
        "wikipedia": "ja:大阪市立島之内図書館"
      }
    },
    {
      "type": "node",
      "id": 1422989613,
      "lat": 34.624495,
      "lon": 135.559185,
      "tags": {
        "KSJ2:ADS": "平野東1-8-2",
        "KSJ2:AdminArea": "大阪府大阪市平野区",
        "KSJ2:PubFacAdmin": "市区町村",
        "amenity": "library",
        "name": "大阪市立平野図書館",
        "note": "National-Land Numerical Information (Public Facility) 2006, MLIT Japan",
        "note:ja": "国土数値情報（公共施設データ）平成19年　国土交通省",
        "source": "KSJ2",
        "source_ref": "http://nlftp.mlit.go.jp/ksj/jpgis/datalist/KsjTmplt-P02-v2_0.html",
        "wikidata": "Q11440484",
        "wikipedia": "ja:大阪市立平野図書館"
      }
    },
    {
      "type": "node",
      "id": 1422989637,
      "lat": 34.720864,
      "lon": 135.5425021,
      "tags": {
        "amenity": "library",
        "name": "大阪市立旭図書館",
        "note": "National-Land Numerical Information (Public Facility) 2006, MLIT Japan",
        "note:ja": "国土数値情報（公共施設データ）平成19年　国土交通省",
        "source": "KSJ2",
        "source_ref": "http://nlftp.mlit.go.jp/ksj/jpgis/datalist/KsjTmplt-P02-v2_0.html",
        "wikidata": "Q11440525",
        "wikipedia": "ja:大阪市立旭図書館"
      }
    },
    {
      "type": "node",
      "id": 1422989642,
      "lat": 34.620346,
      "lon": 135.527495,
      "tags": {
        "KSJ2:ADS": "東田辺2-11-28",
        "KSJ2:AdminArea": "大阪府大阪市東住吉区",
        "KSJ2:PubFacAdmin": "市区町村",
        "amenity": "library",
        "name": "大阪市立東住吉図書館",
        "note": "National-Land Numerical Information (Public Facility) 2006, MLIT Japan",
        "note:ja": "国土数値情報（公共施設データ）平成19年　国土交通省",
        "source": "KSJ2",
        "source_ref": "http://nlftp.mlit.go.jp/ksj/jpgis/datalist/KsjTmplt-P02-v2_0.html",
        "wikidata": "Q11440548",
        "wikipedia": "ja:大阪市立東住吉図書館"
      }
    },
    {
      "type": "node",
      "id": 1422989661,
      "lat": 34.6858992,
      "lon": 135.4570453,
      "tags": {
        "amenity": "library",
        "level": "2",
        "name": "大阪市立此花図書館",
        "note": "National-Land Numerical Information (Public Facility) 2006, MLIT Japan",
        "note:ja": "国土数値情報（公共施設データ）平成19年　国土交通省",
        "source": "KSJ2",
        "source_ref": "http://nlftp.mlit.go.jp/ksj/jpgis/datalist/KsjTmplt-P02-v2_0.html",
        "wikidata": "Q11440594",
        "wikipedia": "ja:大阪市立此花図書館"
      }
    },
    {
      "type": "node",
      "id": 1422989678,
      "lat": 34.716084,
      "lon": 135.4811928,
      "tags": {
        "amenity": "library",
        "name": "大阪市立淀川図書館",
        "note": "National-Land Numerical Information (Public Facility) 2006, MLIT Japan",
        "note:ja": "国土数値情報（公共施設データ）平成19年　国土交通省",
        "source": "KSJ2",
        "source_ref": "http://nlftp.mlit.go.jp/ksj/jpgis/datalist/KsjTmplt-P02-v2_0.html",
        "wikidata": "Q11440610",
        "wikipedia": "ja:大阪市立淀川図書館"
      }
    },
    {
      "type": "node",
      "id": 1422989688,
      "lat": 34.6531856,
      "lon": 135.5397764,
      "tags": {
        "amenity": "library",
        "name": "大阪市立生野図書館",
        "note": "National-Land Numerical Information (Public Facility) 2006, MLIT Japan",
        "note:ja": "国土数値情報（公共施設データ）平成19年　国土交通省",
        "source": "KSJ2",
        "source_ref": "http://nlftp.mlit.go.jp/ksj/jpgis/datalist/KsjTmplt-P02-v2_0.html",
        "wikidata": "Q11440645",
        "wikipedia": "ja:大阪市立生野図書館"
      }
    },
    {
      "type": "node",
      "id": 1422989700,
      "lat": 34.6913097,
      "lon": 135.4731586,
      "tags": {
        "amenity": "library",
        "level": "2",
        "name": "大阪市立福島図書館",
        "note": "National-Land Numerical Information (Public Facility) 2006, MLIT Japan",
        "note:ja": "国土数値情報（公共施設データ）平成19年　国土交通省",
        "source": "KSJ2",
        "source_ref": "http://nlftp.mlit.go.jp/ksj/jpgis/datalist/KsjTmplt-P02-v2_0.html",
        "wikidata": "Q11440674",
        "wikipedia": "ja:大阪市立福島図書館"
      }
    },
    {
      "type": "node",
      "id": 1422989717,
      "lat": 34.634622,
      "lon": 135.494887,
      "tags": {
        "amenity": "library",
        "name": "大阪市立西成図書館",
        "name:en": "Nishinari Public Library",
        "note": "National-Land Numerical Information (Public Facility) 2006, MLIT Japan",
        "note:ja": "国土数値情報（公共施設データ）平成19年　国土交通省",
        "source": "KSJ2",
        "source_ref": "http://nlftp.mlit.go.jp/ksj/jpgis/datalist/KsjTmplt-P02-v2_0.html",
        "wikidata": "Q11440713",
        "wikipedia": "ja:大阪市立西成図書館"
      }
    },
    {
      "type": "node",
      "id": 1422989722,
      "lat": 34.7112949,
      "lon": 135.4562011,
      "tags": {
        "amenity": "library",
        "name": "大阪市立西淀川図書館",
        "note": "National-Land Numerical Information (Public Facility) 2006, MLIT Japan",
        "note:ja": "国土数値情報（公共施設データ）平成19年　国土交通省",
        "source": "KSJ2",
        "source_ref": "http://nlftp.mlit.go.jp/ksj/jpgis/datalist/KsjTmplt-P02-v2_0.html",
        "wikidata": "Q11440714",
        "wikipedia": "ja:大阪市立西淀川図書館"
      }
    },
    {
      "type": "node",
      "id": 1422989729,
      "lat": 34.701003,
      "lon": 135.527882,
      "tags": {
        "KSJ2:ADS": "中野町2-16-25",
        "KSJ2:AdminArea": "大阪府大阪市都島区",
        "KSJ2:PubFacAdmin": "市区町村",
        "amenity": "library",
        "name": "大阪市立都島図書館",
        "note": "National-Land Numerical Information (Public Facility) 2006, MLIT Japan",
        "note:ja": "国土数値情報（公共施設データ）平成19年　国土交通省",
        "source": "KSJ2",
        "source_ref": "http://nlftp.mlit.go.jp/ksj/jpgis/datalist/KsjTmplt-P02-v2_0.html",
        "wheelchair": "yes",
        "wikidata": "Q11440735",
        "wikipedia": "ja:大阪市立都島図書館"
      }
    },
    {
      "type": "node",
      "id": 1422989747,
      "lat": 34.6405473,
      "lon": 135.5103859,
      "tags": {
        "amenity": "library",
        "name": "大阪市立阿倍野図書館",
        "note": "National-Land Numerical Information (Public Facility) 2006, MLIT Japan",
        "note:ja": "国土数値情報（公共施設データ）平成19年　国土交通省",
        "source": "KSJ2",
        "source_ref": "http://nlftp.mlit.go.jp/ksj/jpgis/datalist/KsjTmplt-P02-v2_0.html",
        "wheelchair": "yes",
        "wikidata": "Q11440766",
        "wikipedia": "ja:大阪市立阿倍野図書館"
      }
    },
    {
      "type": "node",
      "id": 1422989779,
      "lat": 34.704304,
      "lon": 135.573489,
      "tags": {
        "KSJ2:ADS": "横堤5-3-15",
        "KSJ2:AdminArea": "大阪府大阪市鶴見区",
        "KSJ2:PubFacAdmin": "市区町村",
        "amenity": "library",
        "name": "大阪市立鶴見図書館",
        "note": "National-Land Numerical Information (Public Facility) 2006, MLIT Japan",
        "note:ja": "国土数値情報（公共施設データ）平成19年　国土交通省",
        "source": "KSJ2",
        "source_ref": "http://nlftp.mlit.go.jp/ksj/jpgis/datalist/KsjTmplt-P02-v2_0.html",
        "wikidata": "Q11440796",
        "wikipedia": "ja:大阪市立鶴見図書館"
      }
    },
    {
      "type": "node",
      "id": 2868217700,
      "lat": 34.6572178,
      "lon": 135.5017284,
      "tags": {
        "amenity": "library",
        "name": "まちライブラリー＠大阪府立大学",
        "website": "https://machi-library.org/where/detail/59/"
      }
    },
    {
      "type": "node",
      "id": 4406518743,
      "lat": 34.6681061,
      "lon": 135.5414729,
      "tags": {
        "addr:block_number": "2",
        "addr:city": "大阪市",
        "addr:housenumber": "17",
        "addr:neighbourhood": "三丁目",
        "addr:postcode": "537-0014",
        "addr:province": "大阪府",
        "addr:quarter": "大今里西",
        "addr:suburb": "東成区",
        "amenity": "library",
        "contact:fax": "+81-6-6972-0278",
        "contact:phone": "+81-6-6972-0727",
        "contact:website": "http://www.oml.city.osaka.lg.jp/?page_id=151",
        "level": "7",
        "name": "東成図書館",
        "name:en": "Osaka Municipal Higashinari Library",
        "opening_hours": "Tu-Fri 10:00-19:00; Th[3] off; Sa-Su,PH,Jul 21-Aug-31 Mo 10:00-17:00; Dec 29-Dec 31,Jan 1-Jan 4 off",
        "operator": "大阪市立図書館",
        "source": "local knowledge",
        "wikidata": "Q11440552",
        "wikipedia": "ja:大阪市立東成図書館"
      }
    },
    {
      "type": "node",
      "id": 5311885146,
      "lat": 34.6460895,
      "lon": 135.5040014,
      "tags": {
        "amenity": "library",
        "indoor": "yes",
        "level": "0",
        "source": "local knowledge"
      }
    },
    {
      "type": "node",
      "id": 7639856140,
      "lat": 34.6586522,
      "lon": 135.4960957,
      "tags": {
        "amenity": "library",
        "int_name": "Naniwa Public Library",
        "name": "大阪市立浪速図書館",
        "wikidata": "Q11440604",
        "wikipedia": "ja:大阪市立浪速図書館"
      }
    },
    {
      "type": "node",
      "id": 8738589013,
      "lat": 34.6900114,
      "lon": 135.5128464,
      "tags": {
        "alt_name": "エル・ライブラリー",
        "amenity": "library",
        "contact:twitter": "https://twitter.com/llibraryosaka",
        "level": "3",
        "name": "大阪産業労働資料館",
        "operator": "公益財団法人大阪社会運動協会",
        "phone": "06-6947-7722",
        "ref:isil": "JP-1005176",
        "website": "https://shaunkyo.jp/",
        "wikidata": "Q11441549",
        "wikipedia": "ja:大阪産業労働資料館"
      }
    },
    {
      "type": "node",
      "id": 9805941230,
      "lat": 34.6809209,
      "lon": 135.5302973,
      "tags": {
        "amenity": "library",
        "name": "まちライブラリー＠もりのみやキューズモール"
      }
    },
    {
      "type": "way",
      "id": 220002945,
      "nodes": [
        2291260044,
        2291260043,
        2291260038,
        2291260037,
        2771712967,
        2291259959,
        2291259960,
        2291259966,
        2291259965,
        2291259981,
        2291259983,
        2291260016,
        2291260014,
        2291260035,
        2291260036,
        2291260044
      ],
      "tags": {
        "addr:city": "大阪市",
        "addr:housenumber": "北区中之島1-2-10",
        "amenity": "library",
        "building": "yes",
        "building:levels": "5",
        "name": "大阪府立中之島図書館",
        "source": "GSI/KIBAN 2500;NARO",
        "source_ref": "http://wiki.osm.org/wiki/GSI_KIBAN",
        "website": "http://www.library.pref.osaka.jp/site/nakato/",
        "wheelchair": "yes",
        "wikidata": "Q7105601",
        "wikipedia": "ja:大阪府立中之島図書館"
      }
    },
    {
      "type": "way",
      "id": 261672826,
      "nodes": [
        2672717247,
        2672717243,
        2672717230,
        2672717232,
        2672717266,
        8537345987,
        2672717262,
        2672717247
      ],
      "tags": {
        "addr:city": "大阪市",
        "addr:housenumber": "4-47",
        "addr:postcode": "543-0037",
        "addr:province": "大阪府",
        "addr:quarter": "上之宮町",
        "addr:street": "上之宮町",
        "addr:suburb": "天王寺区",
        "amenity": "library",
        "building": "yes",
        "internet_access": "wlan",
        "internet_access:ssid": "Osaka Free Wi-Fi Lite",
        "name": "大阪市立天王寺図書館",
        "note": "公衆無線LANサービス http://www.oml.city.osaka.lg.jp/?page_id=1591#_9226 【OsakaFreeWi-Fi Liteの接続方法について】 ご利用の際はメールアドレス入力が必要です。 ※30分ごとにリセットされますので、継続利用する際は、同じ手順を繰り返してください。　 　また、1つのメールアドレスにつき、１日に８回（４時間/１日）まで利用できます。 ※英語で表記されることがありますが、日本語等に切り替えることができます。",
        "source": "GSI/KIBAN 2500;NARO",
        "source_ref": "http://wiki.osm.org/wiki/GSI_KIBAN",
        "website": "https://www.oml.city.osaka.lg.jp/?page_id=146",
        "wikidata": "Q11440449",
        "wikipedia": "ja:大阪市立天王寺図書館"
      }
    },
    {
      "type": "way",
      "id": 271460788,
      "nodes": [
        2764222352,
        5409822612,
        5458736593,
        5409822611,
        2764222355,
        5440480107,
        5440487389,
        5440487330,
        2764222358,
        2764222362,
        2764222365,
        2764222369,
        2764222371,
        5409822613,
        5409822614,
        2764222374,
        2764222352
      ],
      "tags": {
        "alt_name": "辰巳商会中央図書館",
        "amenity": "library",
        "building": "yes",
        "building:levels": "5",
        "building:levels:underground": "6",
        "name": "大阪市立中央図書館",
        "phone": "06-6539-3300",
        "website": "https://www.oml.city.osaka.lg.jp/",
        "wheelchair": "yes",
        "wikidata": "Q11440289",
        "wikipedia": "ja:大阪市立中央図書館"
      }
    },
    {
      "type": "way",
      "id": 271460800,
      "nodes": [
        2764222460,
        2764222462,
        2764222464,
        2764222466,
        2764222468,
        2764222471,
        2764222473,
        5653112896,
        3087209618,
        2764222460
      ],
      "tags": {
        "amenity": "library",
        "building": "civic",
        "name": "大阪市立住吉図書館",
        "operator": "大阪市",
        "operator:type": "public",
        "ref:isil": "JP-1002170",
        "website": "https://www.oml.city.osaka.lg.jp/index.php?page_id=143",
        "wikidata": "Q11440329",
        "wikipedia": "ja:大阪市立住吉図書館"
      }
    },
    {
      "type": "way",
      "id": 293393553,
      "nodes": [
        2969861764,
        2969861747,
        2969861559,
        5458736560,
        2969861575,
        2969861764
      ],
      "tags": {
        "amenity": "library",
        "building": "yes",
        "internet_access": "no",
        "name": "大阪市公文書館",
        "operator": "大阪市",
        "source": "GSI/KIBAN 2500;NARO",
        "source_ref": "http://wiki.osm.org/wiki/GSI_KIBAN"
      }
    },
    {
      "type": "way",
      "id": 1038591920,
      "nodes": [
        9564996113,
        9564996112,
        9564996111,
        9564996110,
        9564996109,
        9564996108,
        9564996117,
        9564996116,
        9564996118,
        9564996119,
        9564996120,
        9564996127,
        9564996123,
        9564996114,
        9564996124,
        9564996099,
        9564996128,
        9564996129,
        9564996126,
        9564996125,
        9564996122,
        9564996121,
        9564996115,
        9564996107,
        9564996106,
        9564996113
      ],
      "tags": {
        "amenity": "library",
        "building": "public",
        "name": "こども本の森 中之島",
        "opening_hours": "Tu-Su 09:30-17:00",
        "start_date": "2020-07-05",
        "website": "https://kodomohonnomori.osaka/",
        "wikidata": "Q108270058",
        "wikipedia": "ja:こども本の森 中之島"
      }
    },
    {
      "type": "node",
      "id": 2764222460,
      "lat": 34.6049878,
      "lon": 135.500445
    },
    {
      "type": "node",
      "id": 2764222462,
      "lat": 34.604989,
      "lon": 135.5010926
    },
    {
      "type": "node",
      "id": 2764222464,
      "lat": 34.6047673,
      "lon": 135.501087
    },
    {
      "type": "node",
      "id": 2764222466,
      "lat": 34.6047669,
      "lon": 135.5010179
    },
    {
      "type": "node",
      "id": 2764222468,
      "lat": 34.6046428,
      "lon": 135.5010188
    },
    {
      "type": "node",
      "id": 2764222471,
      "lat": 34.6046413,
      "lon": 135.5006886
    },
    {
      "type": "node",
      "id": 2764222473,
      "lat": 34.6046939,
      "lon": 135.5006883
    },
    {
      "type": "node",
      "id": 3087209618,
      "lat": 34.6046927,
      "lon": 135.5004493
    },
    {
      "type": "node",
      "id": 5653112896,
      "lat": 34.6046934,
      "lon": 135.5005943
    },
    {
      "type": "node",
      "id": 2672717230,
      "lat": 34.6614261,
      "lon": 135.5223156
    },
    {
      "type": "node",
      "id": 2672717232,
      "lat": 34.6614393,
      "lon": 135.5218966
    },
    {
      "type": "node",
      "id": 2672717243,
      "lat": 34.6615916,
      "lon": 135.5223233
    },
    {
      "type": "node",
      "id": 2672717247,
      "lat": 34.6615991,
      "lon": 135.5220849
    },
    {
      "type": "node",
      "id": 2672717262,
      "lat": 34.6616473,
      "lon": 135.5220872
    },
    {
      "type": "node",
      "id": 2672717266,
      "lat": 34.661653,
      "lon": 135.5219066
    },
    {
      "type": "node",
      "id": 8537345987,
      "lat": 34.6616485,
      "lon": 135.522049
    },
    {
      "type": "node",
      "id": 2764222352,
      "lat": 34.6740695,
      "lon": 135.4857843
    },
    {
      "type": "node",
      "id": 2764222355,
      "lat": 34.6740616,
      "lon": 135.4865978
    },
    {
      "type": "node",
      "id": 2764222358,
      "lat": 34.6738889,
      "lon": 135.4865862
    },
    {
      "type": "node",
      "id": 2764222362,
      "lat": 34.6738861,
      "lon": 135.4866473
    },
    {
      "type": "node",
      "id": 2764222365,
      "lat": 34.6734547,
      "lon": 135.4866183
    },
    {
      "type": "node",
      "id": 2764222369,
      "lat": 34.6734715,
      "lon": 135.4862474
    },
    {
      "type": "node",
      "id": 2764222371,
      "lat": 34.6736622,
      "lon": 135.4862602
    },
    {
      "type": "node",
      "id": 2764222374,
      "lat": 34.6737435,
      "lon": 135.4857624
    },
    {
      "type": "node",
      "id": 2969861559,
      "lat": 34.6734407,
      "lon": 135.4861864
    },
    {
      "type": "node",
      "id": 2969861575,
      "lat": 34.6734622,
      "lon": 135.4857274
    },
    {
      "type": "node",
      "id": 2969861747,
      "lat": 34.6736376,
      "lon": 135.4862001
    },
    {
      "type": "node",
      "id": 2969861764,
      "lat": 34.6736591,
      "lon": 135.4857411
    },
    {
      "type": "node",
      "id": 5409822611,
      "lat": 34.6740936,
      "lon": 135.485895
    },
    {
      "type": "node",
      "id": 5409822612,
      "lat": 34.6740646,
      "lon": 135.485893
    },
    {
      "type": "node",
      "id": 5409822613,
      "lat": 34.6736669,
      "lon": 135.4861585
    },
    {
      "type": "node",
      "id": 5409822614,
      "lat": 34.6737253,
      "lon": 135.4861625
    },
    {
      "type": "node",
      "id": 5440480107,
      "lat": 34.6739907,
      "lon": 135.486593
    },
    {
      "type": "node",
      "id": 5440487330,
      "lat": 34.6739191,
      "lon": 135.4865882
    },
    {
      "type": "node",
      "id": 5440487389,
      "lat": 34.6739438,
      "lon": 135.4865899
    },
    {
      "type": "node",
      "id": 5458736560,
      "lat": 34.6734467,
      "lon": 135.4860584
    },
    {
      "type": "node",
      "id": 5458736593,
      "lat": 34.6740785,
      "lon": 135.485894
    },
    {
      "type": "node",
      "id": 2291259959,
      "lat": 34.6932949,
      "lon": 135.5034505
    },
    {
      "type": "node",
      "id": 2291259960,
      "lat": 34.6933101,
      "lon": 135.5029871
    },
    {
      "type": "node",
      "id": 2291259965,
      "lat": 34.6934494,
      "lon": 135.5030664
    },
    {
      "type": "node",
      "id": 2291259966,
      "lat": 34.6934518,
      "lon": 135.5029939
    },
    {
      "type": "node",
      "id": 2291259981,
      "lat": 34.6936007,
      "lon": 135.5030737
    },
    {
      "type": "node",
      "id": 2291259983,
      "lat": 34.6936045,
      "lon": 135.5029601
    },
    {
      "type": "node",
      "id": 2291260014,
      "lat": 34.6937308,
      "lon": 135.5030767
    },
    {
      "type": "node",
      "id": 2291260016,
      "lat": 34.6937344,
      "lon": 135.5029664
    },
    {
      "type": "node",
      "id": 2291260035,
      "lat": 34.6938757,
      "lon": 135.5030838
    },
    {
      "type": "node",
      "id": 2291260036,
      "lat": 34.6938778,
      "lon": 135.5030207
    },
    {
      "type": "node",
      "id": 2291260037,
      "lat": 34.6937114,
      "lon": 135.5033388
    },
    {
      "type": "node",
      "id": 2291260038,
      "lat": 34.693922,
      "lon": 135.5033485
    },
    {
      "type": "node",
      "id": 2291260043,
      "lat": 34.6939932,
      "lon": 135.503352
    },
    {
      "type": "node",
      "id": 2291260044,
      "lat": 34.6940039,
      "lon": 135.5030268
    },
    {
      "type": "node",
      "id": 2771712967,
      "lat": 34.693706,
      "lon": 135.5034707
    },
    {
      "type": "node",
      "id": 9564996099,
      "lat": 34.6931111,
      "lon": 135.5062254
    },
    {
      "type": "node",
      "id": 9564996106,
      "lat": 34.6930467,
      "lon": 135.5066625
    },
    {
      "type": "node",
      "id": 9564996107,
      "lat": 34.6930324,
      "lon": 135.5066501
    },
    {
      "type": "node",
      "id": 9564996108,
      "lat": 34.693015,
      "lon": 135.5066537
    },
    {
      "type": "node",
      "id": 9564996109,
      "lat": 34.6930049,
      "lon": 135.5066712
    },
    {
      "type": "node",
      "id": 9564996110,
      "lat": 34.6930078,
      "lon": 135.5066923
    },
    {
      "type": "node",
      "id": 9564996111,
      "lat": 34.6930222,
      "lon": 135.5067047
    },
    {
      "type": "node",
      "id": 9564996112,
      "lat": 34.6930395,
      "lon": 135.5067011
    },
    {
      "type": "node",
      "id": 9564996113,
      "lat": 34.6930497,
      "lon": 135.5066836
    },
    {
      "type": "node",
      "id": 9564996114,
      "lat": 34.6930479,
      "lon": 135.5063276
    },
    {
      "type": "node",
      "id": 9564996115,
      "lat": 34.6930512,
      "lon": 135.5066341
    },
    {
      "type": "node",
      "id": 9564996116,
      "lat": 34.6929605,
      "lon": 135.5065982
    },
    {
      "type": "node",
      "id": 9564996117,
      "lat": 34.6929583,
      "lon": 135.5066217
    },
    {
      "type": "node",
      "id": 9564996118,
      "lat": 34.6929702,
      "lon": 135.5065784
    },
    {
      "type": "node",
      "id": 9564996119,
      "lat": 34.6929972,
      "lon": 135.5065784
    },
    {
      "type": "node",
      "id": 9564996120,
      "lat": 34.692968,
      "lon": 135.5065466
    },
    {
      "type": "node",
      "id": 9564996121,
      "lat": 34.6930774,
      "lon": 135.5066284
    },
    {
      "type": "node",
      "id": 9564996122,
      "lat": 34.6930755,
      "lon": 135.5065097
    },
    {
      "type": "node",
      "id": 9564996123,
      "lat": 34.6930176,
      "lon": 135.5064111
    },
    {
      "type": "node",
      "id": 9564996124,
      "lat": 34.6930895,
      "lon": 135.5062515
    },
    {
      "type": "node",
      "id": 9564996125,
      "lat": 34.6931113,
      "lon": 135.5063843
    },
    {
      "type": "node",
      "id": 9564996126,
      "lat": 34.6931776,
      "lon": 135.5064206
    },
    {
      "type": "node",
      "id": 9564996127,
      "lat": 34.6930039,
      "lon": 135.5064984
    },
    {
      "type": "node",
      "id": 9564996128,
      "lat": 34.6931483,
      "lon": 135.5061804
    },
    {
      "type": "node",
      "id": 9564996129,
      "lat": 34.6932293,
      "lon": 135.5062965
    }
  ]
}